QIANFAN-49              
1 62250U 24232P   25291.29187203  .00000149  00000+0  21182-3 0  9999
2 62250  89.0028  46.8175 0013711   2.5987 357.5233 13.50979761 60359
QIANFAN-50              
1 62251U 24232Q   25291.31656811  .00000170  00000+0  24512-3 0  9993
2 62251  89.0033  46.8200 0015392   3.1513 356.9732 13.50980355 60385
QIANFAN-51              
1 62252U 24232R   25291.30012127  .00000139  00000+0  19692-3 0  9997
2 62252  89.0027  46.8190 0013035   8.2277 351.9085 13.50977124 60377
QIANFAN-52              
1 62253U 24232S   25291.32887186  .00000170  00000+0  24525-3 0  9991
2 62253  89.0023  46.6918 0014779 359.1633   0.9490 13.50979809 60463
QIANFAN-53              
1 62254U 24232T   25291.30839612  .00000145  00000+0  20665-3 0  9994
2 62254  89.0031  46.7942 0013700   0.9076 359.2098 13.50975355 60428
QIANFAN-54              
1 62255U 24232U   25291.34949267  .00000158  00000+0  22549-3 0  9994
2 62255  89.0022  46.4734 0003228  66.8316 293.3175 13.50977558 91938
QIANFAN-55              
1 62785U 25016A   25291.30152780  .00000103  00000+0  14045-3 0  9997
2 62785  88.9740 108.9359 0018273 144.1766 216.0614 13.50968009 39701
QIANFAN-56              
1 62786U 25016B   25291.31797571  .00000101  00000+0  13733-3 0  9993
2 62786  88.9713 108.7857 0016854 146.0512 214.1721 13.50976320 39754
